{
  "links" : {
    "next" : "https://api.nasa.gov/neo/rest/v1/feed?start_date=2011-07-23&end_date=2011-07-23&detailed=true&api_key=t0TVs3DtDT2H8Oy2Zy8m2eVrNsAVKAexjcZXUckd",
    "prev" : "https://api.nasa.gov/neo/rest/v1/feed?start_date=2011-07-21&end_date=2011-07-21&detailed=true&api_key=t0TVs3DtDT2H8Oy2Zy8m2eVrNsAVKAexjcZXUckd",
    "self" : "https://api.nasa.gov/neo/rest/v1/feed?start_date=2011-07-22&end_date=2011-07-22&detailed=true&api_key=t0TVs3DtDT2H8Oy2Zy8m2eVrNsAVKAexjcZXUckd"
  },
  "element_count" : 7,
  "near_earth_objects" : {
    "2011-07-22" : [ {
      "links" : {
        "self" : "https://api.nasa.gov/neo/rest/v1/neo/2293726?api_key=t0TVs3DtDT2H8Oy2Zy8m2eVrNsAVKAexjcZXUckd"
      },
      "neo_reference_id" : "2293726",
      "name" : "293726 (2007 RQ17)",
      "nasa_jpl_url" : "http://ssd.jpl.nasa.gov/sbdb.cgi?sstr=2293726",
      "absolute_magnitude_h" : 22.6,
      "estimated_diameter" : {
        "kilometers" : {
          "estimated_diameter_min" : 0.0802703167,
          "estimated_diameter_max" : 0.1794898848
        },
        "meters" : {
          "estimated_diameter_min" : 80.2703167283,
          "estimated_diameter_max" : 179.4898847799
        },
        "miles" : {
          "estimated_diameter_min" : 0.049877647,
          "estimated_diameter_max" : 0.1115298092
        },
        "feet" : {
          "estimated_diameter_min" : 263.3540659348,
          "estimated_diameter_max" : 588.8775935812
        }
      },
      "is_potentially_hazardous_asteroid" : false,
      "close_approach_data" : [ {
        "close_approach_date" : "2011-07-22",
        "epoch_date_close_approach" : 1311318000000,
        "relative_velocity" : {
          "kilometers_per_second" : "5.7048657445",
          "kilometers_per_hour" : "20537.5166803066",
          "miles_per_hour" : "12761.2141839383"
        },
        "miss_distance" : {
          "astronomical" : "0.0339963811",
          "lunar" : "13.2245922089",
          "kilometers" : "5085786",
          "miles" : "3160161"
        },
        "orbiting_body" : "Earth"
      } ],
      "orbital_data" : {
        "orbit_id" : "38",
        "orbit_determination_date" : "2017-04-06 09:24:11",
        "orbit_uncertainty" : "0",
        "minimum_orbit_intersection" : ".0206457",
        "jupiter_tisserand_invariant" : "4.319",
        "epoch_osculation" : "2458000.5",
        "eccentricity" : ".3692685560132113",
        "semi_major_axis" : "1.578815747122662",
        "inclination" : "2.008572387244131",
        "ascending_node_longitude" : "350.5521610990256",
        "orbital_period" : "724.5954472639381",
        "perihelion_distance" : ".995808735971757",
        "perihelion_argument" : "302.1856771379752",
        "aphelion_distance" : "2.161822758273567",
        "perihelion_time" : "2457937.936319111508",
        "mean_anomaly" : "31.08344829505001",
        "mean_motion" : ".4968289565706696",
        "equinox" : "J2000"
      }
    }, {
      "links" : {
        "self" : "https://api.nasa.gov/neo/rest/v1/neo/3079950?api_key=t0TVs3DtDT2H8Oy2Zy8m2eVrNsAVKAexjcZXUckd"
      },
      "neo_reference_id" : "3079950",
      "name" : "(2001 OT)",
      "nasa_jpl_url" : "http://ssd.jpl.nasa.gov/sbdb.cgi?sstr=3079950",
      "absolute_magnitude_h" : 21.6,
      "estimated_diameter" : {
        "kilometers" : {
          "estimated_diameter_min" : 0.1272198785,
          "estimated_diameter_max" : 0.2844722965
        },
        "meters" : {
          "estimated_diameter_min" : 127.2198785394,
          "estimated_diameter_max" : 284.4722965033
        },
        "miles" : {
          "estimated_diameter_min" : 0.0790507431,
          "estimated_diameter_max" : 0.1767628354
        },
        "feet" : {
          "estimated_diameter_min" : 417.3880663071,
          "estimated_diameter_max" : 933.3080892598
        }
      },
      "is_potentially_hazardous_asteroid" : false,
      "close_approach_data" : [ {
        "close_approach_date" : "2011-07-22",
        "epoch_date_close_approach" : 1311318000000,
        "relative_velocity" : {
          "kilometers_per_second" : "22.518324907",
          "kilometers_per_hour" : "81065.9696652266",
          "miles_per_hour" : "50371.2409844849"
        },
        "miss_distance" : {
          "astronomical" : "0.434608372",
          "lunar" : "169.0626525879",
          "kilometers" : "65016488",
          "miles" : "40399372"
        },
        "orbiting_body" : "Earth"
      } ],
      "orbital_data" : {
        "orbit_id" : "24",
        "orbit_determination_date" : "2017-04-06 09:16:18",
        "orbit_uncertainty" : "1",
        "minimum_orbit_intersection" : ".062612",
        "jupiter_tisserand_invariant" : "6.356",
        "epoch_osculation" : "2458000.5",
        "eccentricity" : ".3227993630332831",
        "semi_major_axis" : ".933874726984628",
        "inclination" : "12.0598575368061",
        "ascending_node_longitude" : "295.8518881780213",
        "orbital_period" : "329.6335142636025",
        "perihelion_distance" : ".632420559961109",
        "perihelion_argument" : "142.9390082994719",
        "aphelion_distance" : "1.235328894008147",
        "perihelion_time" : "2458143.700299191843",
        "mean_anomaly" : "203.6078084346782",
        "mean_motion" : "1.092121960973039",
        "equinox" : "J2000"
      }
    }, {
      "links" : {
        "self" : "https://api.nasa.gov/neo/rest/v1/neo/3754438?api_key=t0TVs3DtDT2H8Oy2Zy8m2eVrNsAVKAexjcZXUckd"
      },
      "neo_reference_id" : "3754438",
      "name" : "(2016 NG15)",
      "nasa_jpl_url" : "http://ssd.jpl.nasa.gov/sbdb.cgi?sstr=3754438",
      "absolute_magnitude_h" : 20.6,
      "estimated_diameter" : {
        "kilometers" : {
          "estimated_diameter_min" : 0.2016299194,
          "estimated_diameter_max" : 0.4508582062
        },
        "meters" : {
          "estimated_diameter_min" : 201.6299194428,
          "estimated_diameter_max" : 450.8582061718
        },
        "miles" : {
          "estimated_diameter_min" : 0.1252869847,
          "estimated_diameter_max" : 0.2801502144
        },
        "feet" : {
          "estimated_diameter_min" : 661.5155049046,
          "estimated_diameter_max" : 1479.1936371367
        }
      },
      "is_potentially_hazardous_asteroid" : true,
      "close_approach_data" : [ {
        "close_approach_date" : "2011-07-22",
        "epoch_date_close_approach" : 1311318000000,
        "relative_velocity" : {
          "kilometers_per_second" : "12.3463427026",
          "kilometers_per_hour" : "44446.8337292671",
          "miles_per_hour" : "27617.5339913882"
        },
        "miss_distance" : {
          "astronomical" : "0.4168794675",
          "lunar" : "162.1661224365",
          "kilometers" : "62364284",
          "miles" : "38751368"
        },
        "orbiting_body" : "Earth"
      } ],
      "orbital_data" : {
        "orbit_id" : "15",
        "orbit_determination_date" : "2017-04-06 08:25:10",
        "orbit_uncertainty" : "4",
        "minimum_orbit_intersection" : ".00017745",
        "jupiter_tisserand_invariant" : "3.705",
        "epoch_osculation" : "2458000.5",
        "eccentricity" : ".6030215272338272",
        "semi_major_axis" : "1.83700084933408",
        "inclination" : "23.06757318115825",
        "ascending_node_longitude" : "268.0775077690718",
        "orbital_period" : "909.4157314116949",
        "perihelion_distance" : ".7292497916388054",
        "perihelion_argument" : "108.3588503810726",
        "aphelion_distance" : "2.944751907029355",
        "perihelion_time" : "2457652.927826099930",
        "mean_anomaly" : "137.5894195384008",
        "mean_motion" : ".3958585579349595",
        "equinox" : "J2000"
      }
    } ]
  }
}